STARLINK-2029
1 28320C 21036AW  21325.15919346 -.00006611  00000-0 -44315-3 0  3259
2 28320  53.0533 307.5024 0001742  53.0509 359.5714 15.06390332    12
